0 SAUDICOMSAT 2
1 28370U 04025E   13281.15988608  .00000285  00000-0  89734-4 0  6550
2 28370 098.1211 245.1404 0057334 306.5956 118.2418 14.46396573489521
0 SAUDICOMSAT 2
1 28370U 04025E   13282.48463860  .00000308  00000-0  96027-4 0  6565
2 28370 098.1212 246.4103 0057297 302.4678 176.3415 14.46399231489713
0 SAUDICOMSAT 2
1 28370U 04025E   13283.73036001  .00000271  00000-0  85982-4 0  6575
2 28370 098.1214 247.6044 0057271 298.5711 182.9430 14.46399894489891
0 SAUDICOMSAT 2
1 28370U 04025E   13286.13988663  .00000256  00000-0  81852-4 0  6599
2 28370 098.1220 249.9139 0057236 291.0346 129.6138 14.46401519490243
0 SAUDICOMSAT 2
1 28370U 04025E   13287.46476204  .00000291  00000-0  91368-4 0  6603
2 28370 098.1222 251.1839 0057213 286.8855 188.3979 14.46402479490431
0 SAUDICOMSAT 2
1 28370U 04025E   13288.50347829  .00000429  00000-0  12908-3 0  6615
2 28370 098.1226 252.1795 0057186 283.6510 197.1033 14.46403811490585
0 SAUDICOMSAT 2
1 28370U 04025E   13290.15271189  .00000353  00000-0  10840-3 0  6624
2 28370 098.1230 253.7604 0057208 278.4684 144.8938 14.46405318490829
0 SAUDICOMSAT 2
1 28370U 04025E   13291.41535316  .00000368  00000-0  11228-3 0  6637
2 28370 098.1234 254.9708 0057225 274.5176 239.6320 14.46406271491001
0 SAUDICOMSAT 2
1 28370U 04025E   13292.51509275  .00000384  00000-0  11678-3 0  6642
2 28370 098.1235 256.0251 0057206 271.0625 206.1381 14.46407149491166
0 SAUDICOMSAT 2
1 28370U 04025E   13293.81834591  .00000434  00000-0  13027-3 0  6655
2 28370 098.1236 257.2747 0057228 266.9897 152.3533 14.46408242491355
0 SAUDICOMSAT 2
1 28370U 04025E   13295.13275641  .00000424  00000-0  12763-3 0  6663
2 28370 098.1237 258.5350 0057251 262.8674 156.6847 14.46409777491544
